[	
	{
		"ID":1,
		"name":"green・green・vilage",
		"PostalCode":"802-0002",
		"address":"福岡県北九州市小倉北区京町4丁目5-1 greengreenvillage",
		"PhoneNumber":"093-521-1881",
		"CoorX":33.8853066,
		"CoorY":130.8854933
	},
	{
		"ID":2,
		"name":"BUTARBAR きれんじ家",
		"PostalCode":"802-0077",
		"address":"福岡県北九州市小倉北区馬借1丁目10-2 BUTABARキレンジ家",
		"PhoneNumber":"050-5596-1950",
		"CoorX":33.884634,
		"CoorY":130.8782809
	},
	{
		"ID":3,
		"name":"Parts Of Life",
		"PostalCode":"802-0006",
		"address":"福岡県北九州市小倉北区魚町3丁目1-11 Parts Of Life",
		"PhoneNumber":"093-482-3737",
		"CoorX":3,
		"CoorY":130

	},
	{
		"ID":4,
		"name":"うどん秋月",
		"PostalCode":"802-0077",
		"address":"福岡県北九州市小倉北区馬借2丁目1-22エイトピア花房 うどん秋月",
		"PhoneNumber":"093-512-1828",
		"CoorX":3,
		"CoorY":130
	},
	{
		"ID":5,
		"name":"Organic Cafe Dio",
		"PostalCode":"802-0077",
		"address":"福岡県北九州市小倉北区馬借1丁目16-15 Organic Cafe Dio",
		"PhoneNumber":"093-555-7377",
		"CoorX":33.878763,
		"CoorY":130.8755083
	},
	{
		"ID":6,
		"name":"cafe CACTUS",
		"PostalCode":"802-0006",
		"address":"福岡県北九州市小倉北区魚町3丁目3-12 カフェカクタス",
		"PhoneNumber":"093-513-1102",
		"CoorX":33.8827634,
		"CoorY":130.8779473
	},
	{
		"ID":7,
		"name":"インドキッチン　ギタンジャリ",
		"PostalCode":"803-0812",
		"address":"福岡県北九州市小倉北区室町2丁目11-4 ギタンジャリ",
		"PhoneNumber":"050-5890-9028",
		"CoorX":33.8876438,
		"CoorY":130.8717857
	},
	{
		"ID":8,
		"name":"サンドイッチファクトリー OCM",
		"PostalCode":"802-0007",
		"address":"福岡県北九州市小倉北区船場町3-6 OCM",	
		"PhoneNumber":"093-522-5973",
		"CoorX":3,
		"CoorY":130
	},
	{
		"ID":9,
		"name":"だるま堂",
		"PostalCode":"802-0006",
		"address":"福岡県北九州市小倉北区魚町1丁目4-17 ダルマ堂",
		"PhoneNumber":"093-531-6401",
		"CoorX":3,
		"CoorY":130	
	},
	{
		"ID":10,
		"name":"ラ・ファリーナ",
		"PostalCode":"802-0077",
		"address":"福岡県北九州市小倉北区馬借3丁目2-4 ラ・ファリーナ",
		"PhoneNumber":"093-521-2676",
		"CoorX":3,
		"CoorY":130
	},
	{
		"ID":11,
		"name":"レストラン タカヤマ",
		"PostalCode":"802-0002",
		"address":"福岡県北九州市小倉北区京町2丁目1-5 レストランタカヤマ",
		"PhoneNumber":"093-521-8776",
		"CoorX":3,
		"CoorY":130
	},
	{
		"ID":12,
		"name":"四方平",
		"PostalCode":"802-0002",
		"address":"福岡県北九州市小倉北区京町1丁目2-22 四方平",
		"PhoneNumber":"093-521-0323",
		"CoorX":3,
		"CoorY":130

	},
	{
		"ID":13,
		"name":"中華そば藤王",
		"PostalCode":"802-0006",
		"address":"福岡県北九州市小倉北区魚町2丁目4-18 中華ソバ藤王",
		"PhoneNumber":"093-511-2800",
		"CoorX":3,
		"CoorY":130

	},
	{
		"ID":14,
		"name":"鉄板焼きバール",
		"PostalCode":"802-0006",
		"address":"福岡県北九州市小倉北区魚町2丁目6-5 鉄板焼キバール ピアチェーレ",
		"PhoneNumber":"093-512-9519",
		"CoorX":3,
		"CoorY":130.78786958
	}
]